{
  "type": "FeatureCollection",
  "features": [
    {
      "type": "Feature",
      "properties": {
        "id": "society-turn-pud-massing",
        "project_id": "society-turn-pud",
        "name": "Society Turn PUD",
        "status": "Under Review",
        "project_type": "Medical / Commercial / Hotel",
        "height_ft": 72,
        "height_m": 21.95,
        "base_m": 0,
        "floors": 5,
        "sqft": 400000,
        "hotel_rooms": 125,
        "housing_units": null,
        "source_confidence": "Estimated",
        "source_note": "Approximate block massing based on 400,000 sq ft PUD application summary and site area. Footprint and height are conceptual — final architectural plans have not been submitted.",
        "deep_dive_url": "https://livabletelluride.org/societyturnpud/",
        "primary_source_url": "",
        "last_updated": "2026-05-13"
      },
      "geometry": {
        "type": "Polygon",
        "coordinates": [[
          [-107.8744, 37.9489],
          [-107.8684, 37.9489],
          [-107.8684, 37.9517],
          [-107.8744, 37.9517],
          [-107.8744, 37.9489]
        ]]
      }
    },
    {
      "type": "Feature",
      "properties": {
        "id": "four-seasons-mv-massing",
        "project_id": "four-seasons-mountain-village",
        "name": "Four Seasons Resort & Residences Telluride",
        "status": "Approved",
        "project_type": "Hotel / Lodging",
        "height_ft": 85,
        "height_m": 25.91,
        "base_m": 0,
        "floors": 7,
        "sqft": 350000,
        "hotel_rooms": 52,
        "housing_units": 10,
        "source_confidence": "Estimated",
        "source_note": "Approximate massing derived from 4.4-acre site area and public application materials. Exact footprint and height pending final architectural submittal. Construction started October 2025.",
        "deep_dive_url": "https://livabletelluride.org/",
        "primary_source_url": "https://coloradosun.com/2026/04/07/housing-four-seasons-mountain-village/",
        "last_updated": "2026-05-13"
      },
      "geometry": {
        "type": "Polygon",
        "coordinates": [[
          [-107.8462, 37.9372],
          [-107.8440, 37.9372],
          [-107.8440, 37.9384],
          [-107.8462, 37.9384],
          [-107.8462, 37.9372]
        ]]
      }
    },
    {
      "type": "Feature",
      "properties": {
        "id": "six-senses-mv-massing",
        "project_id": "six-senses-mountain-village",
        "name": "Six Senses Telluride",
        "status": "Approved",
        "project_type": "Hotel / Lodging",
        "height_ft": 72,
        "height_m": 21.95,
        "base_m": 0,
        "floors": 6,
        "sqft": 180000,
        "hotel_rooms": 77,
        "housing_units": 56,
        "source_confidence": "Estimated",
        "source_note": "Approximate massing based on 77-room hotel + 24 residences + 56-unit employee housing complex. Footprint conceptually derived from development area in public press releases and planning filings.",
        "deep_dive_url": "https://livabletelluride.org/",
        "primary_source_url": "https://www.telluridenews.com/",
        "last_updated": "2026-05-13"
      },
      "geometry": {
        "type": "Polygon",
        "coordinates": [[
          [-107.8489, 37.9329],
          [-107.8471, 37.9329],
          [-107.8471, 37.9341],
          [-107.8489, 37.9341],
          [-107.8489, 37.9329]
        ]]
      }
    },
    {
      "type": "Feature",
      "properties": {
        "id": "voodoo-housing-massing",
        "project_id": "voodoo-affordable-housing",
        "name": "VooDoo Affordable Housing",
        "status": "Approved",
        "project_type": "Housing",
        "height_ft": 45,
        "height_m": 13.72,
        "base_m": 0,
        "floors": 4,
        "sqft": 85000,
        "hotel_rooms": null,
        "housing_units": 27,
        "source_confidence": "Estimated",
        "source_note": "Approximate block massing based on 27-unit affordable housing project. Site and building form based on public records.",
        "deep_dive_url": "https://livabletelluride.org/the-voodoo-project/",
        "primary_source_url": "",
        "last_updated": "2026-05-13"
      },
      "geometry": {
        "type": "Polygon",
        "coordinates": [[
          [-107.8123, 37.9379],
          [-107.8103, 37.9379],
          [-107.8103, 37.9391],
          [-107.8123, 37.9391],
          [-107.8123, 37.9379]
        ]]
      }
    },
    {
      "type": "Feature",
      "properties": {
        "id": "chair-7-massing",
        "project_id": "chair-7-open-space",
        "name": "Chair 7 Redevelopment Area",
        "status": "Proposed",
        "project_type": "Open Space / Hotel / Land Use",
        "height_ft": 60,
        "height_m": 18.29,
        "base_m": 0,
        "floors": 5,
        "sqft": 120000,
        "hotel_rooms": 80,
        "housing_units": null,
        "source_confidence": "Unknown",
        "source_note": "Placeholder massing only. Chair 7 redevelopment concept has been discussed publicly but no formal application or site plan has been filed. Height and footprint are speculative.",
        "deep_dive_url": "https://livabletelluride.org/the-chair-7-development-controversy/",
        "primary_source_url": "",
        "last_updated": "2026-05-13"
      },
      "geometry": {
        "type": "Polygon",
        "coordinates": [[
          [-107.8630, 37.9274],
          [-107.8610, 37.9274],
          [-107.8610, 37.9286],
          [-107.8630, 37.9286],
          [-107.8630, 37.9274]
        ]]
      }
    }
  ,
    {
      "type": "Feature",
      "properties": {
        "id": "carhenge-block-a-massing",
        "project_id": "carhenge-lot",
        "name": "Carhenge Lot — Residential Block (South)",
        "status": "Under Review",
        "project_type": "Housing / Mixed-Use",
        "height_ft": 48,
        "height_m": 14.6,
        "base_m": 0,
        "floors": 4,
        "sqft": null,
        "hotel_rooms": null,
        "housing_units": null,
        "source_confidence": "Unknown",
        "source_note": "Schematic massing only — derived from May 2026 HARC Work Session concept drawings. Building form, footprint, and height are illustrative pending PUD application. Actual design subject to HARC review.",
        "deep_dive_url": "https://engagetelluride.org/carhenge-lot-redevelopment-project",
        "primary_source_url": "https://engagetelluride.org/32089/widgets/113355/documents/80980",
        "last_updated": "2026-05-13"
      },
      "geometry": {
        "type": "Polygon",
        "coordinates": [[
          [-107.8279, 37.9308],
          [-107.8261, 37.9308],
          [-107.8261, 37.9315],
          [-107.8279, 37.9315],
          [-107.8279, 37.9308]
        ]]
      }
    },
    {
      "type": "Feature",
      "properties": {
        "id": "carhenge-block-b-massing",
        "project_id": "carhenge-lot",
        "name": "Carhenge Lot — Commercial / Community Block (North)",
        "status": "Under Review",
        "project_type": "Housing / Mixed-Use",
        "height_ft": 36,
        "height_m": 11.0,
        "base_m": 0,
        "floors": 3,
        "sqft": null,
        "hotel_rooms": null,
        "housing_units": null,
        "source_confidence": "Unknown",
        "source_note": "Schematic massing only — derived from May 2026 HARC Work Session concept drawings. Ground-floor commercial / community-serving uses with housing above. Subject to full HARC and PUD review.",
        "deep_dive_url": "https://engagetelluride.org/carhenge-lot-redevelopment-project",
        "primary_source_url": "https://engagetelluride.org/32089/widgets/113355/documents/80980",
        "last_updated": "2026-05-13"
      },
      "geometry": {
        "type": "Polygon",
        "coordinates": [[
          [-107.8279, 37.9319],
          [-107.8261, 37.9319],
          [-107.8261, 37.9324],
          [-107.8279, 37.9324],
          [-107.8279, 37.9319]
        ]]
      }
    }
  ]
}
